{
  "type": "FeatureCollection",
  "features": [
    {
      "type": "Feature",
      "properties": {
        "norad_id": 66940,
        "name": "STARLINK-36121",
        "group": "last-30-days",
        "lat": 43.3844054063334,
        "lon": 167.02642309005168,
        "alt_km": 298.2309843926214,
        "timestamp": "2025-12-16T08:59:41.909797+00:00",
        "meta_object_name": "STARLINK-36121",
        "meta_object_id": "2025-286R",
        "meta_epoch": "2025-12-15T22:00:01.999584",
        "meta_mean_motion": 15.90489843,
        "meta_eccentricity": 6.499e-05,
        "meta_inclination": 53.1562,
        "meta_ra_of_asc_node": 34.4833,
        "meta_arg_of_pericenter": 87.7886,
        "meta_mean_anomaly": 289.55,
        "meta_ephemeris_type": 0,
        "meta_classification_type": "U",
        "meta_norad_cat_id": 66940,
        "meta_element_set_no": 999,
        "meta_rev_at_epoch": 250,
        "meta_bstar": -0.0045861481,
        "meta_mean_motion_dot": -0.0127962,
        "meta_mean_motion_ddot": 0,
        "tle_line1": "1 66940U 25286R   25349.91668981 -.01279620  00000+0 -45861-2 0  9993",
        "tle_line2": "2 66940  53.1562  34.4833 0000649  87.7886 289.5500 15.90489843  2504"
      },
      "geometry": {
        "type": "Point",
        "coordinates": [
          167.02642309005168,
          43.3844054063334
        ]
      }
    },
    {
      "type": "Feature",
      "properties": {
        "norad_id": 66941,
        "name": "STARLINK-36088",
        "group": "last-30-days",
        "lat": 45.50327110014275,
        "lon": 162.42312994138763,
        "alt_km": 298.13258946316546,
        "timestamp": "2025-12-16T08:59:41.909809+00:00",
        "meta_object_name": "STARLINK-36088",
        "meta_object_id": "2025-286S",
        "meta_epoch": "2025-12-15T22:00:01.999584",
        "meta_mean_motion": 15.90396175,
        "meta_eccentricity": 6.464e-05,
        "meta_inclination": 53.1563,
        "meta_ra_of_asc_node": 34.491,
        "meta_arg_of_pericenter": 84.9772,
        "meta_mean_anomaly": 288.5959,
        "meta_ephemeris_type": 0,
        "meta_classification_type": "U",
        "meta_norad_cat_id": 66941,
        "meta_element_set_no": 999,
        "meta_rev_at_epoch": 250,
        "meta_bstar": -0.0045547028,
        "meta_mean_motion_dot": -0.01266395,
        "meta_mean_motion_ddot": 0,
        "tle_line1": "1 66941U 25286S   25349.91668981 -.01266395  00000+0 -45547-2 0  9990",
        "tle_line2": "2 66941  53.1563  34.4910 0000646  84.9772 288.5959 15.90396175  2504"
      },
      "geometry": {
        "type": "Point",
        "coordinates": [
          162.42312994138763,
          45.50327110014275
        ]
      }
    },
    {
      "type": "Feature",
      "properties": {
        "norad_id": 66942,
        "name": "STARLINK-36100",
        "group": "last-30-days",
        "lat": 42.23413180235676,
        "lon": 169.2509422370233,
        "alt_km": 298.2832906684853,
        "timestamp": "2025-12-16T08:59:41.909819+00:00",
        "meta_object_name": "STARLINK-36100",
        "meta_object_id": "2025-286T",
        "meta_epoch": "2025-12-15T22:00:01.999584",
        "meta_mean_motion": 15.90538104,
        "meta_eccentricity": 5.814e-05,
        "meta_inclination": 53.1561,
        "meta_ra_of_asc_node": 34.4793,
        "meta_arg_of_pericenter": 103.846,
        "meta_mean_anomaly": 275.4159,
        "meta_ephemeris_type": 0,
        "meta_classification_type": "U",
        "meta_norad_cat_id": 66942,
        "meta_element_set_no": 999,
        "meta_rev_at_epoch": 243,
        "meta_bstar": -0.0045940002,
        "meta_mean_motion_dot": -0.01284353,
        "meta_mean_motion_ddot": 0,
        "tle_line1": "1 66942U 25286T   25349.91668981 -.01284353  00000+0 -45940-2 0  9992",
        "tle_line2": "2 66942  53.1561  34.4793 0000581 103.8460 275.4159 15.90538104  2434"
      },
      "geometry": {
        "type": "Point",
        "coordinates": [
          169.2509422370233,
          42.23413180235676
        ]
      }
    },
    {
      "type": "Feature",
      "properties": {
        "norad_id": 66943,
        "name": "STARLINK-36109",
        "group": "last-30-days",
        "lat": 40.828252442156334,
        "lon": 171.7637538635119,
        "alt_km": 298.3864123202002,
        "timestamp": "2025-12-16T08:59:41.909830+00:00",
        "meta_object_name": "STARLINK-36109",
        "meta_object_id": "2025-286U",
        "meta_epoch": "2025-12-15T22:00:01.999584",
        "meta_mean_motion": 15.90588681,
        "meta_eccentricity": 6.56e-05,
        "meta_inclination": 53.1561,
        "meta_ra_of_asc_node": 34.4744,
        "meta_arg_of_pericenter": 91.8466,
        "meta_mean_anomaly": 289.6857,
        "meta_ephemeris_type": 0,
        "meta_classification_type": "U",
        "meta_norad_cat_id": 66943,
        "meta_element_set_no": 999,
        "meta_rev_at_epoch": 243,
        "meta_bstar": -0.0046202118,
        "meta_mean_motion_dot": -0.01293872,
        "meta_mean_motion_ddot": 0,
        "tle_line1": "1 66943U 25286U   25349.91668981 -.01293872  00000+0 -46202-2 0  9991",
        "tle_line2": "2 66943  53.1561  34.4744 0000656  91.8466 289.6857 15.90588681  2433"
      },
      "geometry": {
        "type": "Point",
        "coordinates": [
          171.7637538635119,
          40.828252442156334
        ]
      }
    },
    {
      "type": "Feature",
      "properties": {
        "norad_id": 66944,
        "name": "STARLINK-36112",
        "group": "last-30-days",
        "lat": 39.6540423466183,
        "lon": 173.71549111290787,
        "alt_km": 298.476277668854,
        "timestamp": "2025-12-16T08:59:41.909840+00:00",
        "meta_object_name": "STARLINK-36112",
        "meta_object_id": "2025-286V",
        "meta_epoch": "2025-12-15T22:00:01.999584",
        "meta_mean_motion": 15.90633345,
        "meta_eccentricity": 6.455e-05,
        "meta_inclination": 53.156,
        "meta_ra_of_asc_node": 34.4705,
        "meta_arg_of_pericenter": 88.0304,
        "meta_mean_anomaly": 295.3222,
        "meta_ephemeris_type": 0,
        "meta_classification_type": "U",
        "meta_norad_cat_id": 66944,
        "meta_element_set_no": 999,
        "meta_rev_at_epoch": 250,
        "meta_bstar": -0.0046021242,
        "meta_mean_motion_dot": -0.01292026,
        "meta_mean_motion_ddot": 0,
        "tle_line1": "1 66944U 25286V   25349.91668981 -.01292026  00000+0 -46021-2 0  9991",
        "tle_line2": "2 66944  53.1560  34.4705 0000645  88.0304 295.3222 15.90633345  2503"
      },
      "geometry": {
        "type": "Point",
        "coordinates": [
          173.71549111290787,
          39.6540423466183
        ]
      }
    },
    {
      "type": "Feature",
      "properties": {
        "norad_id": 66945,
        "name": "STARLINK-36110",
        "group": "last-30-days",
        "lat": 38.192143405867945,
        "lon": 175.9873523697888,
        "alt_km": 298.59691342948554,
        "timestamp": "2025-12-16T08:59:41.909850+00:00",
        "meta_object_name": "STARLINK-36110",
        "meta_object_id": "2025-286W",
        "meta_epoch": "2025-12-15T22:00:01.999584",
        "meta_mean_motion": 15.90681042,
        "meta_eccentricity": 6.052e-05,
        "meta_inclination": 53.1558,
        "meta_ra_of_asc_node": 34.4659,
        "meta_arg_of_pericenter": 91.4564,
        "meta_mean_anomaly": 294.1137,
        "meta_ephemeris_type": 0,
        "meta_classification_type": "U",
        "meta_norad_cat_id": 66945,
        "meta_element_set_no": 999,
        "meta_rev_at_epoch": 250,
        "meta_bstar": -0.0046021022,
        "meta_mean_motion_dot": -0.01294822,
        "meta_mean_motion_ddot": 0,
        "tle_line1": "1 66945U 25286W   25349.91668981 -.01294822  00000+0 -46021-2 0  9998",
        "tle_line2": "2 66945  53.1558  34.4659 0000605  91.4564 294.1137 15.90681042  2500"
      },
      "geometry": {
        "type": "Point",
        "coordinates": [
          175.9873523697888,
          38.192143405867945
        ]
      }
    },
    {
      "type": "Feature",
      "properties": {
        "norad_id": 66946,
        "name": "STARLINK-36115",
        "group": "last-30-days",
        "lat": 36.87244633735569,
        "lon": 177.90885712423005,
        "alt_km": 298.7103047144619,
        "timestamp": "2025-12-16T08:59:41.909862+00:00",
        "meta_object_name": "STARLINK-36115",
        "meta_object_id": "2025-286X",
        "meta_epoch": "2025-12-15T22:00:01.999584",
        "meta_mean_motion": 15.90731299,
        "meta_eccentricity": 5.561e-05,
        "meta_inclination": 53.1558,
        "meta_ra_of_asc_node": 34.4618,
        "meta_arg_of_pericenter": 94.665,
        "meta_mean_anomaly": 292.8454,
        "meta_ephemeris_type": 0,
        "meta_classification_type": "U",
        "meta_norad_cat_id": 66946,
        "meta_element_set_no": 999,
        "meta_rev_at_epoch": 250,
        "meta_bstar": -0.0046217451,
        "meta_mean_motion_dot": -0.0130267,
        "meta_mean_motion_ddot": 0,
        "tle_line1": "1 66946U 25286X   25349.91668981 -.01302670  00000+0 -46217-2 0  9997",
        "tle_line2": "2 66946  53.1558  34.4618 0000556  94.6650 292.8454 15.90731299  2509"
      },
      "geometry": {
        "type": "Point",
        "coordinates": [
          177.90885712423005,
          36.87244633735569
        ]
      }
    }
  ]
}